{
    "links": {
        "self": "http://www.neowsapp.com/rest/v1/neo/54048848?api_key=iIulBulltgU6a56xZRHN4H3l9WmuAYTsLGpBGhQ2"
    },
    "id": "54048848",
    "neo_reference_id": "54048848",
    "name": "(2020 OF)",
    "designation": "2020 OF",
    "nasa_jpl_url": "http://ssd.jpl.nasa.gov/sbdb.cgi?sstr=54048848",
    "absolute_magnitude_h": 23.678,
    "estimated_diameter": {
        "kilometers": {
            "estimated_diameter_min": 0.0488601703,
            "estimated_diameter_max": 0.1092546622
        },
        "meters": {
            "estimated_diameter_min": 48.8601703284,
            "estimated_diameter_max": 109.2546622464
        },
        "miles": {
            "estimated_diameter_min": 0.0303602929,
            "estimated_diameter_max": 0.0678876787
        },
        "feet": {
            "estimated_diameter_min": 160.3024012201,
            "estimated_diameter_max": 358.4470660846
        }
    },
    "is_potentially_hazardous_asteroid": false,
    "close_approach_data": [
        {
            "close_approach_date": "2020-07-20",
            "close_approach_date_full": "2020-Jul-20 15:04",
            "epoch_date_close_approach": 1595257440000,
            "relative_velocity": {
                "kilometers_per_second": "31.5879140535",
                "kilometers_per_hour": "113716.4905927156",
                "miles_per_hour": "70659.004946346"
            },
            "miss_distance": {
                "astronomical": "0.0221449807",
                "lunar": "8.6143974923",
                "kilometers": "3312841.943911109",
                "miles": "2058504.5298229442"
            },
            "orbiting_body": "Earth"
        }
    ],
    "orbital_data": {
        "orbit_id": "7",
        "orbit_determination_date": "2020-09-13 07:22:40",
        "first_observation_date": "2020-07-17",
        "last_observation_date": "2020-07-21",
        "data_arc_in_days": 4,
        "observations_used": 60,
        "orbit_uncertainty": "8",
        "minimum_orbit_intersection": ".0134353",
        "jupiter_tisserand_invariant": "3.033",
        "epoch_osculation": "2459050.5",
        "eccentricity": ".8454541357248713",
        "semi_major_axis": "2.126877649281012",
        "inclination": "30.74276123146754",
        "ascending_node_longitude": "296.1412013984049",
        "orbital_period": "1132.953767578857",
        "perihelion_distance": ".3287001445155882",
        "perihelion_argument": "120.0760350778005",
        "aphelion_distance": "3.925055154046436",
        "perihelion_time": "2459095.038872706621",
        "mean_anomaly": "345.8476182936851",
        "mean_motion": ".3177534779458181",
        "equinox": "J2000",
        "orbit_class": {
            "orbit_class_type": "APO",
            "orbit_class_description": "Near-Earth asteroid orbits which cross the Earth’s orbit similar to that of 1862 Apollo",
            "orbit_class_range": "a (semi-major axis) > 1.0 AU; q (perihelion) < 1.017 AU"
        }
    },
    "is_sentry_object": false
}